[{"OBJECT_NAME":"STARLINK-4556","OBJECT_ID":"2022-101BD","EPOCH":"2025-11-02T04:46:58.246464","MEAN_MOTION":15.08841463,"ECCENTRICITY":0.00014633,"INCLINATION":53.2182,"RA_OF_ASC_NODE":266.081,"ARG_OF_PERICENTER":94.8107,"MEAN_ANOMALY":265.3053,"EPHEMERIS_TYPE":0,"CLASSIFICATION_TYPE":"U","NORAD_CAT_ID":53578,"ELEMENT_SET_NO":999,"REV_AT_EPOCH":17720,"BSTAR":0.00011012912,"MEAN_MOTION_DOT":1.465e-5,"MEAN_MOTION_DDOT":0},{"OBJECT_NAME":"STARLINK-4580","OBJECT_ID":"2022-101BE","EPOCH":"2025-11-02T04:41:38.462784","MEAN_MOTION":15.08865784,"ECCENTRICITY":0.00013538,"INCLINATION":53.2173,"RA_OF_ASC_NODE":266.0576,"ARG_OF_PERICENTER":93.5803,"MEAN_ANOMALY":266.5344,"EPHEMERIS_TYPE":0,"CLASSIFICATION_TYPE":"U","NORAD_CAT_ID":53579,"ELEMENT_SET_NO":999,"REV_AT_EPOCH":17720,"BSTAR":0.00019470735,"MEAN_MOTION_DOT":2.814e-5,"MEAN_MOTION_DDOT":0},{"OBJECT_NAME":"STARLINK-4691","OBJECT_ID":"2022-104A","EPOCH":"2025-11-02T10:59:21.077376","MEAN_MOTION":15.08835559,"ECCENTRICITY":0.0001325,"INCLINATION":53.2167,"RA_OF_ASC_NODE":95.5329,"ARG_OF_PERICENTER":90.788,"MEAN_ANOMALY":269.3264,"EPHEMERIS_TYPE":0,"CLASSIFICATION_TYPE":"U","NORAD_CAT_ID":53588,"ELEMENT_SET_NO":999,"REV_AT_EPOCH":17688,"BSTAR":1.0066e-5,"MEAN_MOTION_DOT":-1.28e-6,"MEAN_MOTION_DDOT":0},{"OBJECT_NAME":"STARLINK-4673","OBJECT_ID":"2022-104B","EPOCH":"2025-11-01T17:03:34.406496","MEAN_MOTION":15.08836627,"ECCENTRICITY":0.00014506,"INCLINATION":53.2168,"RA_OF_ASC_NODE":98.6893,"ARG_OF_PERICENTER":93.8176,"MEAN_ANOMALY":266.2982,"EPHEMERIS_TYPE":0,"CLASSIFICATION_TYPE":"U","NORAD_CAT_ID":53589,"ELEMENT_SET_NO":999,"REV_AT_EPOCH":17662,"BSTAR":8.866034e-6,"MEAN_MOTION_DOT":-1.47e-6,"MEAN_MOTION_DDOT":0},{"OBJECT_NAME":"STARLINK-4689","OBJECT_ID":"2022-104C","EPOCH":"2025-11-02T02:57:07.530048","MEAN_MOTION":15.08819929,"ECCENTRICITY":0.00013666,"INCLINATION":53.2151,"RA_OF_ASC_NODE":96.9967,"ARG_OF_PERICENTER":95.3003,"MEAN_ANOMALY":264.8146,"EPHEMERIS_TYPE":0,"CLASSIFICATION_TYPE":"U","NORAD_CAT_ID":53590,"ELEMENT_SET_NO":999,"REV_AT_EPOCH":17670,"BSTAR":7.5936029e-5,"MEAN_MOTION_DOT":9.2e-6,"MEAN_MOTION_DDOT":0},{"OBJECT_NAME":"STARLINK-4674","OBJECT_ID":"2022-104D","EPOCH":"2025-11-02T02:51:48.334752","MEAN_MOTION":15.08834179,"ECCENTRICITY":0.00012469,"INCLINATION":53.2167,"RA_OF_ASC_NODE":96.974,"ARG_OF_PERICENTER":74.8261,"MEAN_ANOMALY":285.2869,"EPHEMERIS_TYPE":0,"CLASSIFICATION_TYPE":"U","NORAD_CAT_ID":53591,"ELEMENT_SET_NO":999,"REV_AT_EPOCH":17670,"BSTAR":-1.7475437e-5,"MEAN_MOTION_DOT":-5.66e-6,"MEAN_MOTION_DDOT":0},{"OBJECT_NAME":"STARLINK-4672","OBJECT_ID":"2022-104E","EPOCH":"2025-11-02T02:47:52.826496","MEAN_MOTION":15.08834821,"ECCENTRICITY":0.00012851,"INCLINATION":53.2165,"RA_OF_ASC_NODE":96.957,"ARG_OF_PERICENTER":90.7918,"MEAN_ANOMALY":269.3222,"EPHEMERIS_TYPE":0,"CLASSIFICATION_TYPE":"U","NORAD_CAT_ID":53592,"ELEMENT_SET_NO":999,"REV_AT_EPOCH":17668,"BSTAR":1.5923616e-5,"MEAN_MOTION_DOT":-3.4e-7,"MEAN_MOTION_DDOT":0},{"OBJECT_NAME":"STARLINK-4681","OBJECT_ID":"2022-104G","EPOCH":"2025-11-01T21:39:06.787296","MEAN_MOTION":15.08838181,"ECCENTRICITY":0.00013858,"INCLINATION":53.216,"RA_OF_ASC_NODE":97.755,"ARG_OF_PERICENTER":92.5094,"MEAN_ANOMALY":267.6057,"EPHEMERIS_TYPE":0,"CLASSIFICATION_TYPE":"U","NORAD_CAT_ID":53594,"ELEMENT_SET_NO":999,"REV_AT_EPOCH":17679,"BSTAR":4.7474716e-5,"MEAN_MOTION_DOT":4.68e-6,"MEAN_MOTION_DDOT":0},{"OBJECT_NAME":"STARLINK-4684","OBJECT_ID":"2022-104H","EPOCH":"2025-11-02T10:27:30.375072","MEAN_MOTION":15.08833471,"ECCENTRICITY":5.73e-5,"INCLINATION":53.2162,"RA_OF_ASC_NODE":95.3973,"ARG_OF_PERICENTER":51.2886,"MEAN_ANOMALY":308.8158,"EPHEMERIS_TYPE":0,"CLASSIFICATION_TYPE":"U","NORAD_CAT_ID":53595,"ELEMENT_SET_NO":999,"REV_AT_EPOCH":17673,"BSTAR":2.5972e-5,"MEAN_MOTION_DOT":1.26e-6,"MEAN_MOTION_DDOT":0},{"OBJECT_NAME":"STARLINK-4676","OBJECT_ID":"2022-104L","EPOCH":"2025-11-02T03:28:49.594080","MEAN_MOTION":15.08835476,"ECCENTRICITY":0.000137,"INCLINATION":53.2169,"RA_OF_ASC_NODE":96.4259,"ARG_OF_PERICENTER":87.983,"MEAN_ANOMALY":272.1319,"EPHEMERIS_TYPE":0,"CLASSIFICATION_TYPE":"U","NORAD_CAT_ID":53598,"ELEMENT_SET_NO":999,"REV_AT_EPOCH":17636,"BSTAR":5.3832599e-5,"MEAN_MOTION_DOT":5.69e-6,"MEAN_MOTION_DDOT":0},{"OBJECT_NAME":"STARLINK-4677","OBJECT_ID":"2022-104N","EPOCH":"2025-11-02T03:25:01.447968","MEAN_MOTION":15.08832621,"ECCENTRICITY":0.00011178,"INCLINATION":53.2169,"RA_OF_ASC_NODE":97.1012,"ARG_OF_PERICENTER":86.6804,"MEAN_ANOMALY":273.4316,"EPHEMERIS_TYPE":0,"CLASSIFICATION_TYPE":"U","NORAD_CAT_ID":53600,"ELEMENT_SET_NO":999,"REV_AT_EPOCH":17635,"BSTAR":2.6131427e-5,"MEAN_MOTION_DOT":1.28e-6,"MEAN_MOTION_DDOT":0},{"OBJECT_NAME":"STARLINK-4675","OBJECT_ID":"2022-104P","EPOCH":"2025-11-02T03:44:41.499168","MEAN_MOTION":15.0887716,"ECCENTRICITY":0.00019866,"INCLINATION":53.2161,"RA_OF_ASC_NODE":96.4954,"ARG_OF_PERICENTER":84.5006,"MEAN_ANOMALY":275.6213,"EPHEMERIS_TYPE":0,"CLASSIFICATION_TYPE":"U","NORAD_CAT_ID":53601,"ELEMENT_SET_NO":999,"REV_AT_EPOCH":17636,"BSTAR":0.00039157752,"MEAN_MOTION_DOT":5.956e-5,"MEAN_MOTION_DDOT":0},{"OBJECT_NAME":"STARLINK-4648","OBJECT_ID":"2022-104Q","EPOCH":"2025-11-01T18:21:03.364992","MEAN_MOTION":15.08835736,"ECCENTRICITY":0.0001303,"INCLINATION":53.2159,"RA_OF_ASC_NODE":93.3382,"ARG_OF_PERICENTER":90.5784,"MEAN_ANOMALY":269.5358,"EPHEMERIS_TYPE":0,"CLASSIFICATION_TYPE":"U","NORAD_CAT_ID":53602,"ELEMENT_SET_NO":999,"REV_AT_EPOCH":17637,"BSTAR":5.5227013e-5,"MEAN_MOTION_DOT":5.91e-6,"MEAN_MOTION_DDOT":0},{"OBJECT_NAME":"STARLINK-4692","OBJECT_ID":"2022-104R","EPOCH":"2025-11-02T02:49:50.680416","MEAN_MOTION":15.0882243,"ECCENTRICITY":0.00013637,"INCLINATION":53.2167,"RA_OF_ASC_NODE":91.9843,"ARG_OF_PERICENTER":89.24,"MEAN_ANOMALY":270.8748,"EPHEMERIS_TYPE":0,"CLASSIFICATION_TYPE":"U","NORAD_CAT_ID":53603,"ELEMENT_SET_NO":999,"REV_AT_EPOCH":17642,"BSTAR":0.00017089707,"MEAN_MOTION_DOT":2.432e-5,"MEAN_MOTION_DDOT":0},{"OBJECT_NAME":"STARLINK-4690","OBJECT_ID":"2022-104S","EPOCH":"2025-11-01T16:35:04.276608","MEAN_MOTION":15.08829922,"ECCENTRICITY":9.594e-5,"INCLINATION":53.2177,"RA_OF_ASC_NODE":93.5887,"ARG_OF_PERICENTER":102.9032,"MEAN_ANOMALY":257.2068,"EPHEMERIS_TYPE":0,"CLASSIFICATION_TYPE":"U","NORAD_CAT_ID":53604,"ELEMENT_SET_NO":999,"REV_AT_EPOCH":17636,"BSTAR":0.00020825429,"MEAN_MOTION_DOT":3.027e-5,"MEAN_MOTION_DDOT":0},{"OBJECT_NAME":"STARLINK-4693","OBJECT_ID":"2022-104T","EPOCH":"2025-11-02T03:34:08.016960","MEAN_MOTION":15.08839808,"ECCENTRICITY":0.00014317,"INCLINATION":53.215,"RA_OF_ASC_NODE":96.4487,"ARG_OF_PERICENTER":87.3532,"MEAN_ANOMALY":272.7624,"EPHEMERIS_TYPE":0,"CLASSIFICATION_TYPE":"U","NORAD_CAT_ID":53605,"ELEMENT_SET_NO":999,"REV_AT_EPOCH":17636,"BSTAR":0.00017069715,"MEAN_MOTION_DOT":2.43e-5,"MEAN_MOTION_DDOT":0}]
