STARLINK-4556           
1 53578U 22101BD  25306.19928526  .00001465  00000+0  11013-3 0  9996
2 53578  53.2182 266.0810 0001463  94.8107 265.3053 15.08841463177208
STARLINK-4580           
1 53579U 22101BE  25306.19558406  .00002814  00000+0  19471-3 0  9998
2 53579  53.2173 266.0576 0001353  93.5803 266.5344 15.08865784177203
STARLINK-4691           
1 53588U 22104A   25306.45788284 -.00000128  00000+0  10066-4 0  9998
2 53588  53.2167  95.5329 0001325  90.7880 269.3264 15.08835559176882
STARLINK-4673           
1 53589U 22104B   25305.71081489 -.00000147  00000+0  88660-5 0  9997
2 53589  53.2168  98.6893 0001450  93.8176 266.2982 15.08836627176627
STARLINK-4689           
1 53590U 22104C   25306.12300382  .00000920  00000+0  75936-4 0  9990
2 53590  53.2151  96.9967 0001366  95.3003 264.8146 15.08819929176707
STARLINK-4674           
1 53591U 22104D   25306.11930943 -.00000566  00000+0 -17475-4 0  9994
2 53591  53.2167  96.9740 0001246  74.8261 285.2869 15.08834179176702
STARLINK-4672           
1 53592U 22104E   25306.11658364 -.00000034  00000+0  15924-4 0  9995
2 53592  53.2165  96.9570 0001285  90.7918 269.3222 15.08834821176688
STARLINK-4681           
1 53594U 22104G   25305.90216189  .00000468  00000+0  47475-4 0  9994
2 53594  53.2160  97.7550 0001385  92.5094 267.6057 15.08838181176790
STARLINK-4684           
1 53595U 22104H   25306.43576823  .00000126  00000+0  25972-4 0  9997
2 53595  53.2162  95.3973 0000573  51.2886 308.8158 15.08833471176736
STARLINK-4676           
1 53598U 22104L   25306.14501845  .00000569  00000+0  53833-4 0  9998
2 53598  53.2169  96.4259 0001370  87.9830 272.1319 15.08835476176364
STARLINK-4677           
1 53600U 22104N   25306.14237787  .00000128  00000+0  26131-4 0  9995
2 53600  53.2169  97.1012 0001117  86.6804 273.4316 15.08832621176358
STARLINK-4675           
1 53601U 22104P   25306.15603587  .00005956  00000+0  39158-3 0  9998
2 53601  53.2161  96.4954 0001986  84.5006 275.6213 15.08877160176361
STARLINK-4648           
1 53602U 22104Q   25305.76462228  .00000591  00000+0  55227-4 0  9996
2 53602  53.2159  93.3382 0001303  90.5784 269.5358 15.08835736176379
STARLINK-4692           
1 53603U 22104R   25306.11794769  .00002432  00000+0  17090-3 0  9996
2 53603  53.2167  91.9843 0001363  89.2400 270.8748 15.08822430176422
STARLINK-4690           
1 53604U 22104S   25305.69102172  .00003027  00000+0  20825-3 0  9991
2 53604  53.2177  93.5887 0000959 102.9032 257.2068 15.08829922176364
STARLINK-4693           
1 53605U 22104T   25306.14870390  .00002430  00000+0  17070-3 0  9992
2 53605  53.2150  96.4487 0001431  87.3532 272.7624 15.08839808176365
